port_code;port_name;state;info;ident;type;name;elevation_ft;continent;iso_country;municipality;lon;lat
ALC;ALCAN;AK;;;;;;;;;;
ANC;ANCHORAGE;AK;;PANC;large_airport;Ted Stevens Anchorage International Airport;152.0;;US;Anchorage;-149.99600219726562; 61.174400329589844
BAR;BAKER AAF - BAKER ISLAND;AK;;;;;;;;;;
DAC;DALTONS CACHE;AK;;;;;;;;;;
PIZ;DEW STATION PT LAY DEW;AK;;PPIZ;medium_airport;Point Lay LRRS Airport;22.0;;US;Point Lay;-163.0050049; 69.73290253
DTH;DUTCH HARBOR;AK;;;;;;;;;;
EGL;EAGLE;AK;;;;;;;;;;
FRB;FAIRBANKS;AK;;;;;;;;;;
HOM;HOMER;AK;;PAHO;medium_airport;Homer Airport;84.0;;US;Homer;-151.4770050048828; 59.645599365234375
HYD;HYDER;AK;;;;;;;;;;
JUN;JUNEAU;AK;;;;;;;;;;
5KE;KETCHIKAN;AK;;;;;;;;;;
KET;KETCHIKAN;AK;;;;;;;;;;
MOS;MOSES POINT INTERMEDIATE;AK;;MOS;small_airport;Moses Point Airport;14.0;;US;Elim;-162.0570068359375; 64.69819641113281
NIK;NIKISKI;AK;;;;;;;;;;
NOM;NOM;AK;;;;;;;;;;
PKC;POKER CREEK;AK;;;;;;;;;;
ORI;PORT LIONS SPB;AK;;ORI;small_airport;Port Lions Airport;52.0;;US;Port Lions;-152.8459930419922; 57.885398864746094
SKA;SKAGWAY;AK;;;;;;;;;;
SNP;ST. PAUL ISLAND;AK;;PASN;medium_airport;St Paul Island Airport;63.0;;US;St Paul Island;-170.22000122070312; 57.167301177978516
TKI;TOKEEN;AK;;57A;seaplane_base;Tokeen Seaplane Base;;;US;Tokeen;-133.32699585; 55.9370994568
WRA;WRANGELL;AK;;;;;;;;;;
HSV;MADISON COUNTY - HUNTSVILLE;AL;;KHSV;large_airport;Huntsville International Carl T Jones Field;629.0;;US;Huntsville;-86.775100708008; 34.637199401855
MOB;MOBILE;AL;;KMOB;large_airport;Mobile Regional Airport;219.0;;US;Mobile;-88.242797851562; 30.691200256348
LIA;LITTLE ROCK;AR;;;;;;;;;;
ROG;ROGERS ARPT;AR;;KROG;small_airport;Rogers Municipal Airport-Carter Field;1359.0;;US;Rogers;-94.10690308; 36.37229919
DOU;DOUGLAS;AZ;;;;;;;;;;
LUK;LUKEVILLE;AZ;;;;;;;;;;
MAP;MARIPOSA AZ           ;;;;;;;;;;;
NAC;NACO;AZ;;;;;;;;;;
NOG;NOGALES;AZ;;;;;;;;;;
PHO;PHOENIX;AZ;;;;;;;;;;
POR;PORTAL;AZ;;;;;;;;;;
SLU;SAN LUIS;AZ;;;;;;;;;;
SAS;SASABE;AZ;;;;;;;;;;
TUC;TUCSON;AZ;;;;;;;;;;
YUI;YUMA;AZ;;;;;;;;;;
AND;ANDRADE;CA;;;;;;;;;;
BUR;BURBANK;CA;;KBUR;medium_airport;Bob Hope Airport;778.0;;US;Burbank;-118.35900115966797; 34.20069885253906
CAL;CALEXICO;CA;;;;;;;;;;
CAO;CAMPO;CA;;;;;;;;;;
FRE;FRESNO;CA;;;;;;;;;;
ICP;IMPERIAL COUNTY;CA;;;;;;;;;;
LNB;LONG BEACH;CA;;;;;;;;;;
LOS;LOS ANGELES;CA;;;;;;;;;;
BFL;MEADOWS FIELD - BAKERSFIELD;CA;;KBFL;medium_airport;Meadows Field;510.0;;US;Bakersfield;-119.0569992; 35.43360138
OAK;OAKLAND;CA;;KOAK;large_airport;Metropolitan Oakland International Airport;9.0;;US;Oakland;-122.221001; 37.721298
ONT;ONTARIO;CA;;KONT;large_airport;Ontario International Airport;944.0;;US;Ontario;-117.60099792480469; 34.055999755859375
OTM;OTAY MESA;CA;;;;;;;;;;
BLT;PACIFIC;;HWY. STATION;;;;;;;;;
PSP;PALM SPRINGS;CA;;KPSP;medium_airport;Palm Springs International Airport;477.0;;US;Palm Springs;-116.50700378417969; 33.8297004699707
SAC;SACRAMENTO;CA;;KSAC;medium_airport;Sacramento Executive Airport;24.0;;US;Sacramento;-121.492996216; 38.5125007629
SLS;SALINAS;CA;;;;;;;;;;
SDP;SAN DIEGO;CA;;;;;;;;;;
SFR;SAN FRANCISCO;CA;;;;;;;;;;
SNJ;SAN JOSE;CA;;;;;;;;;;
SLO;SAN LUIS OBISPO;CA;;;;;;;;;;
SLI;SAN LUIS OBISPO;CA;;;;;;;;;;
SPC;SAN PEDRO;CA;;;;;;;;;;
SYS;SAN YSIDRO;CA;;;;;;;;;;
SAA;SANTA ANA;CA;;;;;;;;;;
STO;STOCKTON;CA;;;;;;;;;;
TEC;TECATE;CA;;;;;;;;;;
TRV;TRAVIS-AFB;CA;;;;;;;;;;
APA;ARAPAHOE COUNTY;CO;;KAPA;medium_airport;Centennial Airport;5885.0;;US;Denver;-104.848999; 39.57009888
ASE;ASPEN;CO;;KASE;medium_airport;Aspen-Pitkin Co/Sardy Field;7820.0;;US;Aspen;-106.8690033; 39.22320175
COS;COLORADO SPRINGS;CO;;KCOS;medium_airport;City of Colorado Springs Municipal Airport;6187.0;;US;Colorado Springs;-104.700996; 38.805801
DEN;DENVER;CO;;KDEN;large_airport;Denver International Airport;5431.0;;US;Denver;-104.672996521; 39.861698150635
DRO;LA PLATA - DURANGO;CO;;KDRO;small_airport;Durango La Plata County Airport;6685.0;;US;Durango;-107.753997803; 37.1515007019
BDL;BRADLEY INTERNATIONAL;CT;;KBDL;large_airport;Bradley International Airport;173.0;;US;Hartford;-72.68319702149999; 41.9388999939
BGC;BRIDGEPORT;CT;;;;;;;;;;
GRT;GROTON;CT;;;;;;;;;;
HAR;HARTFORD;CT;;;;;;;;;;
NWH;NEW HAVEN;CT;;;;;;;;;;
NWL;NEW LONDON;CT;;;;;;;;;;
TST;NEWINGTON DATA CENTER TEST;CT;;;;;;;;;;
WAS;WASHINGTON DC         ;;;;;;;;;;;
DOV;DOVER AFB;DE;;KDOV;large_airport;Dover Air Force Base;24.0;;US;Dover;-75.46600342; 39.12950134
DVD;DOVER-AFB;DE;;;;;;;;;;
WLL;WILMINGTON;DE;;;;;;;;;;
BOC;BOCAGRANDE;FL;;;;;;;;;;
SRQ;BRADENTON - SARASOTA;FL;;KSRQ;large_airport;Sarasota Bradenton International Airport;30.0;;US;Sarasota/Bradenton;-82.55439758300781; 27.39539909362793
CAN;CAPE CANAVERAL;FL;;;;;;;;;;
DAB;DAYTONA BEACH INTERNATIONAL;FL;;KDAB;large_airport;Daytona Beach International Airport;34.0;;US;Daytona Beach;-81.058098; 29.179899
FRN;FERNANDINA;FL;;;;;;;;;;
FTL;FORT LAUDERDALE;FL;;;;;;;;;;
FMY;FORT MYERS;FL;;KFMY;medium_airport;Page Field;17.0;;US;Fort Myers;-81.86329650879999; 26.58659935
FPF;FORT PIERCE;FL;;;;;;;;;;
HUR;HURLBURT FIELD;FL;;;;;;;;;;
GNV;J R ALISON MUNI - GAINESVILLE;FL;;KGNV;medium_airport;Gainesville Regional Airport;152.0;;US;Gainesville;-82.2717971802; 29.6900997162
JAC;JACKSONVILLE;FL;;;;;;;;;;
KEY;KEY WEST;FL;;;;;;;;;;
LEE;LEESBURG MUNICIPAL AIRPORT;FL;;KLEE;medium_airport;Leesburg International Airport;76.0;;US;Leesburg;-81.80870056; 28.82309914
MLB;MELBOURNE;FL;;KMLB;medium_airport;Melbourne International Airport;33.0;;US;Melbourne;-80.64530181884766; 28.102800369262695
MIA;MIAMI;FL;;KMIA;large_airport;Miami International Airport;8.0;;US;Miami;-80.29060363769531; 25.79319953918457
APF;NAPLES;FL;;KAPF;medium_airport;Naples Municipal Airport;8.0;;US;Naples;-81.7752990723; 26.1525993347
OPF;OPA LOCKA;FL;;KOPF;medium_airport;Opa-locka Executive Airport;8.0;;US;Miami;-80.278397; 25.907
ORL;ORLANDO;FL;;KORL;small_airport;Orlando Executive Airport;113.0;;US;Orlando;-81.332901; 28.5455
PAN;PANAMA CITY;FL;;;;;;;;;;
PEN;PENSACOLA;FL;;;;;;;;;;
PCF;PORT CANAVERAL;FL;;;;;;;;;;
PEV;PORT EVERGLADES;FL;;;;;;;;;;
PSJ;PORT ST JOE;FL;;;;;;;;;;
SFB;SANFORD;FL;;KSFB;large_airport;Orlando Sanford International Airport;55.0;;US;Orlando;-81.23750305175781; 28.777599334716797
SGJ;ST AUGUSTINE ARPT;FL;;;;;;;;;;
SAU;ST AUGUSTINE;FL;;;;;;;;;;
FPR;ST LUCIE COUNTY;FL;;KFPR;medium_airport;St Lucie County International Airport;24.0;;US;Fort Pierce;-80.36830139; 27.49510002
SPE;ST PETERSBURG;FL;;;;;;;;;;
TAM;TAMPA;FL;;;;;;;;;;
WPB;WEST PALM BEACH;FL;;;;;;;;;;
ATL;ATLANTA;GA;;KATL;large_airport;Hartsfield Jackson Atlanta International Airport;1026.0;;US;Atlanta;-84.428101; 33.6367
BRU;BRUNSWICK;GA;;;;;;;;;;
AGS;BUSH FIELD - AUGUSTA;GA;;KAGS;large_airport;Augusta Regional At Bush Field;144.0;;US;Augusta;-81.9645004272461; 33.36989974975586
SAV;SAVANNAH;GA;;KSAV;large_airport;Savannah Hilton Head International Airport;50.0;;US;Savannah;-81.20210266; 32.12760162
AGA;AGANA;GU;;;;;;;;;;
HHW;HONOLULU;HI;;;;;;;;;;
OGG;KAHULUI - MAUI;HI;;PHOG;medium_airport;Kahului Airport;54.0;;US;Kahului;-156.429993; 20.8986
KOA;KEAHOLE-KONA;HI;;PHKO;medium_airport;Ellison Onizuka Kona International At Keahole Airport;47.0;;US;Kailua/Kona;-156.045603; 19.738783
LIH;LIHUE;HI;;PHLI;medium_airport;Lihue Airport;153.0;;US;Lihue;-159.33900451660156; 21.97599983215332
CID;CEDAR RAPIDS/IOWA CITY;IA;;KCID;large_airport;The Eastern Iowa Airport;869.0;;US;Cedar Rapids;-91.71080017089844; 41.884700775146484
DSM;DES MOINES;IA;;KDSM;large_airport;Des Moines International Airport;958.0;;US;Des Moines;-93.66310119628906; 41.534000396728516
BOI;AIR TERM. (GOWEN FLD) BOISE;ID;;KBOI;large_airport;Boise Air Terminal/Gowen Field;2871.0;;US;Boise;-116.223; 43.5644
EPI;EASTPORT;ID;;;;;;;;;;
IDA;FANNING FIELD - IDAHO FALLS;ID;;KIDA;medium_airport;Idaho Falls Regional Airport;4744.0;;US;Idaho Falls;-112.070999; 43.514599
PTL;PORTHILL;ID;;;;;;;;;;
SPI;CAPITAL - SPRINGFIELD;IL;;KSPI;large_airport;Abraham Lincoln Capital Airport;598.0;;US;Springfield;-89.67790222; 39.84410095
CHI;CHICAGO;IL;;;;;;;;;;
DPA;DUPAGE COUNTY;IL;;KDPA;medium_airport;Dupage Airport;759.0;;US;Chicago/West Chicago;-88.24859619; 41.90779877
PIA;GREATER PEORIA;IL;;KPIA;large_airport;General Wayne A. Downing Peoria International Airport;660.0;;US;Peoria;-89.6932983398; 40.664199829100006
RFD;GREATER ROCKFORD;IL;;KRFD;large_airport;Chicago Rockford International Airport;742.0;;US;Chicago/Rockford;-89.09719848632812; 42.19540023803711
UGN;MEMORIAL - WAUKEGAN;IL;;KUGN;small_airport;Waukegan National Airport;727.0;;US;Chicago/Waukegan;-87.867897033691; 42.422199249268
GAR;GARY;IN;;;;;;;;;;
HMM;HAMMOND;IN;;;;;;;;;;
INP;INDIANAPOLIS;IN;;;;;;;;;;
MRL;MERRILLVILLE;IN;;;;;;;;;;
SBN;SOUTH BEND;IN;;KSBN;large_airport;South Bend Regional Airport;799.0;;US;South Bend;-86.31729888916016; 41.70869827270508
ICT;MID-CONTINENT - WITCHITA;KS;;KICT;large_airport;Wichita Eisenhower National Airport;1333.0;;US;Wichita;-97.433098; 37.649899
LEX;BLUE GRASS - LEXINGTON;KY;;KLEX;large_airport;Blue Grass Airport;979.0;;US;Lexington;-84.60590362548828; 38.0364990234375
LOU;LOUISVILLE;KY;;KLOU;medium_airport;Bowman Field;546.0;;US;Louisville;-85.6636962891; 38.2280006409
BTN;BATON ROUGE;LA;;;;;;;;;;
LKC;LAKE CHARLES;LA;;;;;;;;;;
LAK;LAKE CHARLES;LA;;;;;;;;;;
MLU;MONROE;LA;;KMLU;large_airport;Monroe Regional Airport;79.0;;US;Monroe;-92.0376968383789; 32.51089859008789
MGC;MORGAN CITY;LA;;;;;;;;;;
NOL;NEW ORLEANS;LA;;;;;;;;;;
BOS;BOSTON;MA;;KBOS;large_airport;General Edward Lawrence Logan International Airport;20.0;;US;Boston;-71.00520325; 42.36429977
GLO;GLOUCESTER;MA;;;;;;;;;;
BED;HANSCOM FIELD - BEDFORD;MA;;KBED;medium_airport;Laurence G Hanscom Field;133.0;;US;Bedford;-71.28900146; 42.47000122
LYN;LYNDEN;WA;;;;;;;;;;
ADW;ANDREWS AFB;MD;;KADW;large_airport;Joint Base Andrews;280.0;;US;Camp Springs;-76.866997; 38.810799
BAL;BALTIMORE;MD;;;;;;;;;;
MKG;MUSKEGON;MD;;;;;;;;;;
PAX;PATUXENT RIVER;MD;;;;;;;;;;
BGM;BANGOR;ME;;;;;;;;;;
BOO;BOOTHBAY HARBOR;ME;;;;;;;;;;
BWM;BRIDGEWATER;ME;;;;;;;;;;
BCK;BUCKPORT;ME;;;;;;;;;;
CLS;CALAIS;ME;;;;;;;;;;
CRB;CARIBOU;ME;;;;;;;;;;
COB;COBURN GORE;ME;;;;;;;;;;
EST;EASTCOURT;ME;;;;;;;;;;
EPT;EASTPORT MUNICIPAL;ME;;;;;;;;;;
EPM;EASTPORT;ME;;;;;;;;;;
FOR;FOREST CITY;ME;;;;;;;;;;
FTF;FORT FAIRFIELD;ME;;;;;;;;;;
FTK;FORT KENT;ME;;;;;;;;;;
HML;HAMIIN;ME;;;;;;;;;;
HTM;HOULTON;ME;;;;;;;;;;
JKM;JACKMAN;ME;;;;;;;;;;
KAL;KALISPEL;MT;;;;;;;;;;
LIM;LIMESTONE;ME;;;;;;;;;;
LUB;LUBEC;ME;;;;;;;;;;
MAD;MADAWASKA;ME;;;;;;;;;;
POM;PORTLAND;ME;;;;;;;;;;
RGM;RANGELEY;ME;;;;;;;;;;
SBR;SOUTH BREWER;ME;;;;;;;;;;
SRL;ST AURELIE;ME;;;;;;;;;;
SPA;ST PAMPILE;ME;;;;;;;;;;
VNB;VAN BUREN;ME;;;;;;;;;;
VCB;VANCEBORO;ME;;;;;;;;;;
AGN;ALGONAC;MI;;;;;;;;;;
ALP;ALPENA;MI;;;;;;;;;;
BCY;BAY CITY;MI;;;;;;;;;;
DET;DETROIT;MI;;KDET;medium_airport;Coleman A. Young Municipal Airport;626.0;;US;Detroit;-83.00990295; 42.40919876
GRP;GRAND RAPIDS;MI;;;;;;;;;;
GRO;GROSSE ISLE;MI;;;;;;;;;;
ISL;ISLE ROYALE;MI;;;;;;;;;;
MRC;MARINE CITY;MI;;;;;;;;;;
MRY;MARYSVILLE;MI;;;;;;;;;;
PTK;OAKLAND COUNTY - PONTIAC;MI;;KPTK;medium_airport;Oakland County International Airport;980.0;;US;Pontiac;-83.420097351074; 42.665500640869
PHU;PORT HURON;MI;;;;;;;;;;
RBT;ROBERTS LANDING;MI;;;;;;;;;;
SAG;SAGINAW;MI;;;;;;;;;;
SSM;SAULT STE. MARIE;MI;;;;;;;;;;
SCL;ST CLAIR;MI;;;;;;;;;;
YIP;WILLOW RUN - YPSILANTI;MI;;KYIP;medium_airport;Willow Run Airport;716.0;;US;Detroit;-83.53040314; 42.23789978
BAU;BAUDETTE;MN;;;;;;;;;;
CAR;CARIBOU MUNICIPAL AIRPORT;MN;;;;;;;;;;
GTF;Collapsed into INT;MN;;;;;;;;;;
INL;Collapsed into INT;MN;;KINL;medium_airport;Falls International Airport;1185.0;;US;International Falls;-93.4030990600586; 48.566200256347656
CRA;CRANE LAKE;MN;;;;;;;;;;
MIC;CRYSTAL MUNICIPAL AIRPORT;MN;;;;;;;;;;
DUL;DULUTH;MN;;;;;;;;;;
ELY;ELY;MN;;;;;;;;;;
GPM;GRAND PORTAGE;MN;;;;;;;;;;
SVC;GRANT COUNTY - SILVER CITY;MN;;;;;;;;;;
INT;L FALLS;MN;;;;;;;;;;
LAN;LANCASTER;MN;;;;;;;;;;
MSP;MINN./ST PAUL;MN;;KMSP;large_airport;Minneapolis-St Paul International/Wold-Chamberlain Airport;841.0;;US;Minneapolis;-93.221802; 44.882
LIN;NORTHERN SVC CENTER;MN;;;;;;;;;;
NOY;NOYES;MN;;;;;;;;;;
PIN;PINE CREEK;MN;;;;;;;;;;
48Y;PINECREEK BORDER ARPT;MN;;48Y;small_airport;Piney Pinecreek Border Airport;1078.0;;US;Pinecreek;-95.98259735107422; 48.99959945678711
RAN;RAINER;MN;;;;;;;;;;
RST;ROCHESTER;MN;;KRST;large_airport;Rochester International Airport;1317.0;;US;Rochester;-92.5; 43.90829849243164
ROS;ROSEAU;MN;;;;;;;;;;
SPM;ST PAUL;MN;;;;;;;;;;
WSB;WARROAD INTL;;SPB;;;;;;;;;
WAR;WARROAD;MN;;;;;;;;;;
KAN;KANSAS CITY;MO;;;;;;;;;;
SGF;SPRINGFIELD-BRANSON;MO;;KSGF;large_airport;Springfield Branson National Airport;1268.0;;US;Springfield;-93.38860321; 37.24570084
STL;ST LOUIS;MO;;KSTL;large_airport;St Louis Lambert International Airport;618.0;;US;St Louis;-90.370003; 38.748697
WHI;WHITETAIL;MT;;;;;;;;;;
WHM;WILD HORSE;MT;;;;;;;;;;
GPT;BILOXI REGIONAL;MS;;KGPT;large_airport;Gulfport Biloxi International Airport;28.0;;US;Gulfport;-89.07009887695312; 30.40730094909668
GTR;GOLDEN TRIANGLE LOWNDES CNTY;MS;;KGTR;medium_airport;Golden Triangle Regional Airport;264.0;;US;Columbus/W Point/Starkville;-88.5914001465; 33.450298309299995
GUL;GULFPORT;MS;;;;;;;;;;
PAS;PASCAGOULA;MS;;;;;;;;;;
JAN;THOMPSON FIELD - JACKSON;MS;;KJAN;large_airport;Jackson-Medgar Wiley Evers International Airport;346.0;;US;Jackson;-90.0758972168; 32.3111991882
BIL;BILLINGS;MT;;KBIL;large_airport;Billings Logan International Airport;3652.0;;US;Billings;-108.54299926757812; 45.807701110839844
BTM;BUTTE;MT;;KBTM;medium_airport;Bert Mooney Airport;5550.0;;US;Butte;-112.49700164794922; 45.95479965209961
CHF;CHIEF MT;MT;;;;;;;;;;
CTB;CUT BANK MUNICIPAL;MT;;KCTB;medium_airport;Cut Bank International Airport;3854.0;;US;Cut Bank;-112.375999451; 48.6083984375
CUT;CUT BANK;MT;;;;;;;;;;
DLB;DEL BONITA;MT;;;;;;;;;;
EUR;EUREKA;MT;;;;;;;;;;
BZN;GALLATIN FIELD - BOZEMAN;MT;;KBZN;medium_airport;Gallatin Field;4473.0;;US;Bozeman;-111.1529999; 45.77750015
FCA;GLACIER NATIONAL PARK;MT;;KGPI;medium_airport;Glacier Park International Airport;2977.0;;US;Kalispell;-114.25599670410156; 48.31050109863281
GGW;GLASGOW;MT;;KGGW;medium_airport;Wokal Field Glasgow International Airport;2296.0;;US;Glasgow;-106.614998; 48.212502
GRE;GREAT FALLS;MT;;;;;;;;;;
HVR;HAVRE;MT;;KHVR;medium_airport;Havre City County Airport;2591.0;;US;Havre;-109.762001; 48.54299927
HEL;HELENA;MT;;;;;;;;;;
LWT;LEWISTON;MT;;KLWT;medium_airport;Lewistown Municipal Airport;4170.0;;US;Lewistown;-109.46700286865234; 47.04930114746094
MGM;MORGAN;MT;;;;;;;;;;
OPH;OPHEIM;MT;;;;;;;;;;
PIE;PIEGAN;MT;;;;;;;;;;
RAY;RAYMOND;MT;;;;;;;;;;
ROO;ROOSVILLE;MT;;SWRD;small_airport;Maestro Marinho Franco Airport;1467.0;SA;BR;RondonÃ³polis;-54.7248; -16.586
SCO;SCOBEY;MT;;;;;;;;;;
SWE;SWEETGTASS;MT;;;;;;;;;;
TRL;TRIAL CREEK;MT;;;;;;;;;;
TUR;TURNER;MT;;;;;;;;;;
WCM;WILLOW CREEK;MT;;;;;;;;;;
CLT;CHARLOTTE;NC;;KCLT;large_airport;Charlotte Douglas International Airport;748.0;;US;Charlotte;-80.94309997558594; 35.2140007019043
FAY;FAYETTEVILLE;NC;;KFAY;medium_airport;Fayetteville Regional Grannis Field;189.0;;US;Fayetteville;-78.88030242919922; 34.9911994934082
MRH;MOREHEAD CITY;NC;;;;;;;;;;
FOP;MORRIS FIELDS AAF;NC;;;;;;;;;;
GSO;PIEDMONT TRIAD INTL AIRPORT;NC;;KGSO;large_airport;Piedmont Triad International Airport;925.0;;US;Greensboro;-79.93730163574219; 36.097801208496094
RDU;RALEIGH/DURHAM;NC;;KRDU;large_airport;Raleigh Durham International Airport;435.0;;US;Raleigh/Durham;-78.7874984741211; 35.877601623535156
SSC;SHAW AFB - SUMTER;NC;;;;;;;;;;
WIL;WILMINGTON;NC;;;;;;;;;;
AMB;AMBROSE;ND;;;;;;;;;;
ANT;ANTLER;ND;;;;;;;;;;
CRY;CARBURY;ND;;;;;;;;;;
DNS;DUNSEITH;ND;;;;;;;;;;
FAR;FARGO;ND;;KFAR;medium_airport;Hector International Airport;902.0;;US;Fargo;-96.81580352783203; 46.92070007324219
FRT;FORTUNA;ND;;;;;;;;;;
GRF;GRAND FORKS;ND;;;;;;;;;;
HNN;HANNAH;ND;;;;;;;;;;
HNS;HANSBORO;ND;;;;;;;;;;
MAI;MAIDA;ND;;;;;;;;;;
MND;MINOT;ND;;;;;;;;;;
NEC;NECHE;ND;;;;;;;;;;
NOO;NOONAN;ND;;;;;;;;;;
NRG;NORTHGATE;ND;;;;;;;;;;
PEM;PEMBINA;ND;;;;;;;;;;
SAR;SARLES;ND;;;;;;;;;;
SHR;SHERWOOD;ND;;;;;;;;;;
SJO;ST JOHN;ND;;;;;;;;;;
WAL;WALHALLA;ND;;;;;;;;;;
WHO;WESTHOPE;ND;;;;;;;;;;
WND;WILLISTON;ND;;;;;;;;;;
OMA;OMAHA;NE;;KOMA;large_airport;Eppley Airfield;984.0;;US;Omaha;-95.894096; 41.3032
LEB;LEBANON;NH;;KLEB;medium_airport;Lebanon Municipal Airport;603.0;;US;Lebanon;-72.30419921880001; 43.626098632799994
MHT;MANCHESTER;NH;;KMHT;medium_airport;Manchester-Boston Regional Airport;266.0;;US;Manchester;-71.435699; 42.932598
PNH;PITTSBURG;NH;;;;;;;;;;
PSM;PORTSMOUTH;NH;;KPSM;medium_airport;Portsmouth International at Pease Airport;100.0;;US;Portsmouth;-70.8233032227; 43.0778999329
BYO;BAYONNE;NJ;;;;;;;;;;
CNJ;CAMDEN;NJ;;;;;;;;;;
HOB;HOBOKEN;NJ;;;;;;;;;;
JER;JERSEY CITY;NJ;;;;;;;;;;
WRI;MC GUIRE AFB - WRIGHTSOWN;NJ;;KWRI;medium_airport;Mc Guire Air Force Base;131.0;;US;Wrightstown;-74.59169769; 40.0155983
MMU;MORRISTOWN;NJ;;KMMU;medium_airport;Morristown Municipal Airport;187.0;;US;Morristown;-74.41490173339844; 40.799400329589844
NEW;NEWARK/TETERBORO;NJ;;;;;;;;;;
PER;PERTH AMBOY;NJ;;;;;;;;;;
ACY;POMONA FIELD - ATLANTIC CITY;NJ;;KACY;medium_airport;Atlantic City International Airport;75.0;;US;Atlantic City;-74.57720184326172; 39.45759963989258
ALA;ALAMAGORDO;NM;;;;;;;;;;
ABQ;ALBUQUERQUE;NM;;KABQ;large_airport;Albuquerque International Sunport;5355.0;;US;Albuquerque;-106.609001; 35.040199
ANP;ANTELOPE WELLS;NM;;;;;;;;;;
CRL;CARLSBAD;NM;;;;;;;;;;
COL;COLUMBUS;NM;;;;;;;;;;
CDD;CRANE LAKE - ST. LOUIS CNTY;NM;;;;;;;;;;
DNM;DEMING;NM;;;;;;;;;;
LAS;LAS CRUCES;NM;;;;;;;;;;
LOB;LORDSBURG;NM;;;;;;;;;;
RUI;RUIDOSO;NM;;KSRR;medium_airport;Sierra Blanca Regional Airport;6814.0;;US;Ruidoso;-105.53500366211; 33.462799072266
STR;SANTA TERESA;NM;;;;;;;;;;
RNO;CANNON INTL - RENO/TAHOE;NV;;KRNO;large_airport;Reno Tahoe International Airport;4415.0;;US;Reno;-119.76799774169922; 39.49909973144531
FLX;FALLON MUNICIPAL AIRPORT;NV;;KFLX;small_airport;Fallon Municipal Airport;3963.0;;US;Fallon;-118.749000549; 39.4990997314
LVG;LAS VEGAS;NV;;;;;;;;;;
REN;RENO;NV;;;;;;;;;;
ALB;ALBANY;NY;;KALB;medium_airport;Albany International Airport;285.0;;US;Albany;-73.80169677734375; 42.74829864501953
AXB;ALEXANDRIA BAY;NY;;89NY;small_airport;Maxson Airfield;340.0;;US;Alexandria Bay;-75.90034; 44.312002
BUF;BUFFALO;NY;;KBUF;large_airport;Buffalo Niagara International Airport;728.0;;US;Buffalo;-78.73220062; 42.94049835
CNH;CANNON CORNERS;NY;;;;;;;;;;
CAP;CAPE VINCENT;NY;;;;;;;;;;
CHM;CHAMPLAIN;NY;;;;;;;;;;
CHT;CHATEAUGAY;NY;;;;;;;;;;
CLA;CLAYTON;NY;;;;;;;;;;
FTC;FORT COVINGTON;NY;;;;;;;;;;
LAG;LA GUARDIA;NY;;;;;;;;;;
LEW;LEWISTON;NY;;;;;;;;;;
MAS;MASSENA;NY;;;;;;;;;;
MAG;MCGUIRE AFB;NY;;;;;;;;;;
MOO;MOORES;NY;;;;;;;;;;
MRR;MORRISTOWN;NY;;;;;;;;;;
NYC;NEW YORK;NY;;;;;;;;;;
NIA;NIAGARA FALLS;NY;;;;;;;;;;
OGD;OGDENSBURG;NY;;;;;;;;;;
OSW;OSWEGO;NY;;;;;;;;;;
ELM;REGIONAL ARPT - HORSEHEAD;NY;;KELM;medium_airport;Elmira Corning Regional Airport;954.0;;US;Elmira/Corning;-76.8916015625; 42.1599006652832
ROC;ROCHESTER;NY;;KROC;large_airport;Greater Rochester International Airport;559.0;;US;Rochester;-77.67240142822266; 43.118900299072266
ROU;ROUSES POINT;NY;;;;;;;;;;
SWF;STEWART - ORANGE CNTY;NY;;KSWF;medium_airport;Stewart International Airport;491.0;;US;Newburgh;-74.10479736328125; 41.50410079956055
SYR;SYRACUSE;NY;;KSYR;large_airport;Syracuse Hancock International Airport;421.0;;US;Syracuse;-76.1063003540039; 43.11119842529297
THO;THOUSAND ISLAND BRIDGE;NY;;;;;;;;;;
TRO;TROUT RIVER;NY;;;;;;;;;;
WAT;WATERTOWN;NY;;;;;;;;;;
HPN;WESTCHESTER - WHITE PLAINS;NY;;KHPN;medium_airport;Westchester County Airport;439.0;;US;White Plains;-73.70760345458984; 41.06700134277344
WRB;WHIRLPOOL BRIDGE;NY;;;;;;;;;;
YOU;YOUNGSTOWN;NY;;;;;;;;;;
AKR;AKRON;OH;;;;;;;;;;
ATB;ASHTABULA;OH;;;;;;;;;;
CIN;CINCINNATI;OH;;;;;;;;;;
CLE;CLEVELAND;OH;;KCLE;large_airport;Cleveland Hopkins International Airport;791.0;;US;Cleveland;-81.8498001099; 41.4117012024
CLM;COLUMBUS;OH;;;;;;;;;;
LOR;LORAIN;OH;;;;;;;;;;
MBO;MARBLE HEADS;OH;;;;;;;;;;
SDY;SANDUSKY;OH;;;;;;;;;;
TOL;TOLEDO;OH;;KTOL;large_airport;Toledo Express Airport;683.0;;US;Toledo;-83.80780029; 41.58679962
OKC;OKLAHOMA CITY;OK;;KOKC;large_airport;Will Rogers World Airport;1295.0;;US;Oklahoma City;-97.60070037841797; 35.39310073852539
TUL;TULSA;OK;;KTUL;large_airport;Tulsa International Airport;677.0;;US;Tulsa;-95.88809967041016; 36.19839859008789
AST;ASTORIA;OR;;KAST;medium_airport;Astoria Regional Airport;15.0;;US;Astoria;-123.878997803; 46.158000946
COO;COOS BAY;OR;;;;;;;;;;
HIO;HILLSBORO;OR;;KHIO;medium_airport;Portland Hillsboro Airport;208.0;;US;Portland;-122.949997; 45.540401
MED;MEDFORD;OR;;;;;;;;;;
NPT;NEWPORT;OR;;;;;;;;;;
POO;PORTLAND;OR;;;;;;;;;;
PUT;PUT-IN-BAY;OH;;;;;;;;;;
RDM;ROBERTS FIELDS - REDMOND;OR;;KRDM;medium_airport;Roberts Field;3080.0;;US;Redmond;-121.1500015; 44.2541008
ERI;ERIE;PA;;KERI;large_airport;Erie International Tom Ridge Field;732.0;;US;Erie;-80.1738667488; 42.0831270134
MDT;HARRISBURG;PA;;KMDT;medium_airport;Harrisburg International Airport;310.0;;US;Harrisburg;-76.7633972168; 40.1935005188
HSB;HARRISONBURG;PA;;;;;;;;;;
PHI;PHILADELPHIA;PA;;;;;;;;;;
PIT;PITTSBURG;PA;;KPIT;large_airport;Pittsburgh International Airport;1203.0;;US;Pittsburgh;-80.23290253; 40.49150085
AGU;AGUADILLA;PR;;;;;;;;;;
BQN;BORINQUEN - AGUADILLO;PR;;;;;;;;;;
JCP;CULEBRA - BENJAMIN RIVERA;PR;;;;;;;;;;
ENS;ENSENADA;PR;;;;;;;;;;
FAJ;FAJARDO;PR;;;;;;;;;;
HUM;HUMACAO;PR;;;;;;;;;;
JOB;JOBOS;PR;;;;;;;;;;
MAY;MAYAGUEZ;PR;;;;;;;;;;
PON;PONCE;PR;;;;;;;;;;
PSE;PONCE-MERCEDITA;PR;;;;;;;;;;
SAJ;SAN JUAN;PR;;;;;;;;;;
VQS;VIEQUES-ARPT;PR;;;;;;;;;;
PRO;PROVIDENCE;RI;;;;;;;;;;
PVD;THEODORE FRANCIS - WARWICK;RI;;KPVD;medium_airport;Theodore Francis Green State Airport;55.0;;US;Providence;-71.42040252685547; 41.732601165771484
CHL;CHARLESTON;SC;;;;;;;;;;
CAE;COLUMBIA;SC;;KCAE;large_airport;Columbia Metropolitan Airport;236.0;;US;Columbia;-81.11949920654297; 33.93880081176758
GEO;GEORGETOWN;SC;;;;;;;;;;
GSP;GREENVILLE;SC;;KGSP;large_airport;Greenville Spartanburg International Airport;964.0;;US;Greenville;-82.2189025879; 34.8956985474
GRR;GREER;SC;;;;;;;;;;
MYR;MYRTLE BEACH;SC;;KMYR;medium_airport;Myrtle Beach International Airport;25.0;;US;Myrtle Beach;-78.9282989502; 33.6796989441
SPF;BLACK HILLS;;SPEARFISH;;;;;;;;;
HON;HOWES REGIONAL ARPT - HURON;SD;;KHON;medium_airport;Huron Regional Airport;1289.0;;US;Huron;-98.22850036621094; 44.38520050048828
SAI;SAIPAN;;SPN;;;;;;;;;
TYS;MC GHEE TYSON - ALCOA;TN;;KTYS;large_airport;McGhee Tyson Airport;981.0;;US;Knoxville;-83.9940033; 35.81100082
MEM;MEMPHIS;TN;;KMEM;large_airport;Memphis International Airport;341.0;;US;Memphis;-89.97669982910156; 35.04240036010742
NSV;NASHVILLE;TN;;;;;;;;;;
TRI;TRI CITY ARPT;TN;;KTRI;large_airport;Tri-Cities Regional TN/VA Airport;1519.0;;US;Bristol/Johnson/Kingsport;-82.407401; 36.475201
ADS;ADDISON AIRPORT- ADDISON;TX;;KADS;small_airport;Addison Airport;644.0;;US;Dallas;-96.8364028931; 32.9686012268
ADT;AMISTAD DAM;TX;;;;;;;;;;
ANZ;ANZALDUAS;TX;;;;;;;;;;
AUS;AUSTIN;TX;;KAUS;large_airport;Austin Bergstrom International Airport;542.0;;US;Austin;-97.6698989868164; 30.194499969482422
BEA;BEAUMONT;TX;;;;;;;;;;
BBP;BIG BEND PARK;TX;;;;;;;;;;
SCC;BP SPEC COORD. CTR;TX;;;;;;;;;;
BTC;BP TACTICAL UNIT;TX;;;;;;;;;;
BOA;BRIDGE OF AMERICAS;TX;;;;;;;;;;
BRO;BROWNSVILLE;TX;;KBRO;medium_airport;Brownsville South Padre Island International Airport;22.0;;US;Brownsville;-97.4259033203125; 25.90679931640625
CRP;CORPUS CHRISTI;TX;;KCRP;large_airport;Corpus Christi International Airport;44.0;;US;Corpus Christi;-97.5011978149414; 27.77039909362793
DAL;DALLAS;TX;;KDAL;large_airport;Dallas Love Field;487.0;;US;Dallas;-96.851799; 32.847099
DLR;DEL RIO;TX;;;;;;;;;;
DNA;DONNA;TX;;;;;;;;;;
EGP;EAGLE PASS;TX;;K5T9;small_airport;Maverick County Memorial International Airport;887.0;;US;Eagle Pass;-100.512001; 28.85720062
ELP;EL PASO;TX;;KELP;medium_airport;El Paso International Airport;3959.0;;US;El Paso;-106.3779984; 31.80719948
FAB;FABENS;TX;;;;;;;;;;
FAL;FALCON HEIGHTS;TX;;;;;;;;;;
FTH;FORT HANCOCK;TX;;;;;;;;;;
AFW;FORT WORTH ALLIANCE;TX;;KAFW;large_airport;Fort Worth Alliance Airport;722.0;;US;Fort Worth;-97.31880187990001; 32.9875984192
FPT;FREEPORT;TX;;;;;;;;;;
GAL;GALVESTON;TX;;;;;;;;;;
HLG;HARLINGEN;TX;;;;;;;;;;
HID;HIDALGO;TX;;;;;;;;;;
HOU;HOUSTON;TX;;KHOU;large_airport;William P Hobby Airport;46.0;;US;Houston;-95.27890015; 29.64539909
SGR;HULL FIELD;;SUGAR LAND ARPT;;;;;;;;;
LLB;JUAREZ-LINCOLN BRIDGE;TX;;;;;;;;;;
LCB;LAREDO COLUMBIA BRIDGE;TX;;;;;;;;;;
LRN;LAREDO NORTH;TX;;;;;;;;;;
LAR;LAREDO;TX;;;;;;;;;;
LSE;LOS EBANOS;TX;;;;;;;;;;
IND;LOS INDIOS;TX;;;;;;;;;;
LOI;LOS INDIOS;TX;;;;;;;;;;
MRS;MARFA;TX;;;;;;;;;;
MCA;MCALLEN;TX;;;;;;;;;;
MAF;ODESSA REGIONAL;TX;;KMAF;medium_airport;Midland International Airport;2871.0;;US;Midland;-102.2020034790039; 31.9424991607666
PDN;PASO DEL NORTE;TX;;;;;;;;;;
PBB;PEACE BRIDGE;NY;;;;;;;;;;
PHR;PHARR;TX;;;;;;;;;;
PAR;PORT ARTHUR;TX;;;;;;;;;;
ISB;PORT ISABEL;TX;;;;;;;;;;
POE;PORT OF EL PASO;TX;;;;;;;;;;
PRE;PRESIDIO;TX;;;;;;;;;;
PGR;PROGRESO;TX;;;;;;;;;;
RIO;RIO GRANDE CITY;TX;;;;;;;;;;
ROM;ROMA;TX;;;;;;;;;;
SNA;SAN ANTONIO;TX;;;;;;;;;;
SNN;SANDERSON;TX;;;;;;;;;;
VIB;VETERAN INTL BRIDGE;TX;;;;;;;;;;
YSL;YSLETA;TX;;;;;;;;;;
CHA;CHARLOTTE AMALIE;VI;;;;;;;;;;
CHR;CHRISTIANSTED;VI;;;;;;;;;;
CRU;CRUZ BAY;;ST JOHN;;;;;;;;;
FRK;FREDERIKSTED;VI;;;;;;;;;;
STT;ST THOMAS;VI;;;;;;;;;;
LGU;CACHE AIRPORT - LOGAN;UT;;KLGU;medium_airport;Logan-Cache Airport;4457.0;;US;Logan;-111.851997375; 41.7911987305
SLC;SALT LAKE CITY;UT;;KSLC;large_airport;Salt Lake City International Airport;4227.0;;US;Salt Lake City;-111.97799682617188; 40.78839874267578
CHO;ALBEMARLE CHARLOTTESVILLE;VA;;KCHO;medium_airport;Charlottesville Albemarle Airport;639.0;;US;Charlottesville;-78.4529037475586; 38.13859939575195
DAA;DAVISON AAF - FAIRFAX CNTY;VA;;KDAA;medium_airport;Davison Army Air Field;73.0;;US;Fort Belvoir;-77.1809997559; 38.715000152600005
HOP;HOPEWELL;VA;;;;;;;;;;
HEF;MANASSAS;VA;;;;;;;;;;
NWN;NEWPORT;VA;;;;;;;;;;
NOR;NORFOLK;VA;;;;;;;;;;
RCM;RICHMOND;VA;;;;;;;;;;
ABS;ALBURG SPRINGS;VT;;;;;;;;;;
ABG;ALBURG;VT;;;;;;;;;;
BEB;BEEBE PLAIN;VT;;;;;;;;;;
BEE;BEECHER FALLS;VT;;;;;;;;;;
BRG;BURLINGTON;VT;;;;;;;;;;
CNA;CANAAN;VT;;;;;;;;;;
DER;DERBY LINE;VT;;;;;;;;;;
DLV;DERBY LINE;VT;;;;;;;;;;
ERC;EAST RICHFORD;VT;;;;;;;;;;
HIG;HIGHGATE SPRINGS;VT;;;;;;;;;;
MOR;MORSES LINE;VT;;;;;;;;;;
NPV;NEWPORT;VT;;;;;;;;;;
NRT;NORTH TROY;VT;;;;;;;;;;
NRN;NORTON;VT;;;;;;;;;;
PIV;PINNACLE ROAD;VT;;;;;;;;;;
RIF;RICHFORT;VT;;;;;;;;;;
STA;ST ALBANS;VT;;;;;;;;;;
SWB;SWANTON;VT;;;;;;;;;;
WBE;WEST BERKSHIRE;VT;;;;;;;;;;
ABE;ABERDEEN;WA;;;;;;;;;;
ANA;ANACORTES;WA;;;;;;;;;;
BEL;BELLINGHAM;WA;;;;;;;;;;
BLI;BELLINGHAM;;WASHINGTON;;;;;;;;;
BLA;BLAINE;WA;;;;;;;;;;
BWA;BOUNDARY;WA;;;;;;;;;;
CUR;CURLEW;WA;;;;;;;;;;
DVL;DANVILLE;WA;;;;;;;;;;
EVE;EVERETT;WA;;;;;;;;;;
FER;FERRY;WA;;;;;;;;;;
FRI;FRIDAY HARBOR;WA;;;;;;;;;;
FWA;FRONTIER;WA;;;;;;;;;;
KLM;KALAMA;WA;;;;;;;;;;
LAU;LAURIER;WA;;;;;;;;;;
LON;LONGVIEW;WA;;;;;;;;;;
MET;METALINE FALLS;WA;;;;;;;;;;
MWH;MOSES LAKE GRANT COUNTY ARPT;WA;;KMWH;medium_airport;Grant County International Airport;1189.0;;US;Moses Lake;-119.3199997; 47.20769882
NEA;NEAH BAY;WA;;;;;;;;;;
NIG;NIGHTHAWK;WA;;;;;;;;;;
OLY;OLYMPIA;WA;;;;;;;;;;
ORO;OROVILLE;WA;;;;;;;;;;
PWB;PASCO;WA;;;;;;;;;;
PIR;POINT ROBERTS;WA;;;;;;;;;;
PNG;PORT ANGELES;WA;;;;;;;;;;
PTO;PORT TOWNSEND;WA;;;;;;;;;;
SEA;SEATTLE;WA;;KSEA;large_airport;Seattle Tacoma International Airport;433.0;;US;Seattle;-122.308998; 47.449001
SPO;SPOKANE;WA;;;;;;;;;;
SUM;SUMAS;WA;;;;;;;;;;
TAC;TACOMA;WA;;;;;;;;;;
PSC;TRI-CITIES - PASCO;WA;;KPSC;medium_airport;Tri Cities Airport;410.0;;US;Pasco;-119.11900329589844; 46.26470184326172
VAN;VANCOUVER;WA;;;;;;;;;;
AGM;ALGOMA;WI;;;;;;;;;;
BAY;BAYFIELD;WI;;;;;;;;;;
GRB;GREEN BAY;WI;;KGRB;large_airport;Austin Straubel International Airport;695.0;;US;Green Bay;-88.12960052490234; 44.48509979248047
MNW;MANITOWOC;WI;;;;;;;;;;
MIL;MILWAUKEE;WI;;;;;;;;;;
MSN;TRUAX FIELD - DANE COUNTY;WI;;KMSN;large_airport;Dane County Regional Truax Field;887.0;;US;Madison;-89.3375015258789; 43.13990020751953
CHS;CHARLESTON;WV;;;;;;;;;;
CLK;CLARKSBURG;WV;;;;;;;;;;
BLF;MERCER COUNTY;WV;;KBLF;medium_airport;Mercer County Airport;2857.0;;US;Bluefield;-81.20770263671875; 37.295799255371094
CSP;CASPER;WY;;;;;;;;;;
XXX;NOT REPORTED/UNKNOWN   ;;;;;;;;;;;
888;UNIDENTIFED AIR / SEAPORT;;;;;;;;;;;
UNK;UNKNOWN POE           ;;;;;;;;;;;
CLG;CALGARY;;CANADA;;;;;;;;;
EDA;EDMONTON;;CANADA;;;;;;;;;
YHC;HAKAI PASS;;CANADA;;;;;;;;;
HAL;Halifax;NS;;;;;;;;;;
MON;MONTREAL;;CANADA;;;;;;;;;
OTT;OTTAWA;;CANADA;;;;;;;;;
YXE;SASKATOON;;CANADA;;;;;;;;;
TOR;TORONTO;;CANADA;;;;;;;;;
VCV;VANCOUVER;;CANADA;;;;;;;;;
VIC;VICTORIA;;CANADA;;;;;;;;;
WIN;WINNIPEG;;CANADA;;;;;;;;;
AMS;AMSTERDAM-SCHIPHOL;;NETHERLANDS;;;;;;;;;
ARB;ARUBA;;NETH ANTILLES;;;;;;;;;
BAN;BANKOK;;THAILAND;;;;;;;;;
BEI;BEICA #ARPT;;ETHIOPIA;;;;;;;;;
PEK;BEIJING CAPITAL INTL;;PRC;;;;;;;;;
BDA;KINDLEY FIELD;;BERMUDA;;;;;;;;;
BOG;BOGOTA;EL;;;;;;;;;;
EZE;BUENOS AIRES;;MINISTRO PIST;;;;;;;;;
CUN;CANCUN;;MEXICO;;;;;;;;;
CRQ;CARAVELAS;BA;;SBCV;medium_airport;Caravelas Airport;36.0;SA;BR;Caravelas;-39.253101348877; -17.652299880981
MVD;CARRASCO;;URUGUAY;;;;;;;;;
DUB;DUBLIN;;IRELAND;;;;;;;;;
FOU;FOUGAMOU #ARPT;;GABON;;;;;;;;;
FBA;FREEPORT;;BAHAMAS;;;;;;;;;
MTY;GEN M. ESCOBEDO;;Monterrey;;;;;;;;;
HMO;GEN PESQUEIRA GARCIA;MX;;;;;;;;;;
GCM;GRAND CAYMAN;;CAYMAN ISLAND;;;;;;;;;
GDL;GUADALAJARA;;MIGUEL HIDAL;;;;;;;;;
HAM;HAMILTON;;BERMUDA;;;;;;;;;
ICN;INCHON;;SEOUL KOREA;;;;;;;;;
IWA;INVALID - IWAKUNI;;JAPAN;;;;;;;;;
CND;KOGALNICEANU;;ROMANIA;;;;;;;;;
LAH;LABUHA ARPT;;INDONESIA;;;;;;;;;
DUR;LOUIS BOTHA;;SOUTH AFRICA;;;;;;;;;
MAL;MANGOLE ARPT;;INDONESIA;;;;;;;;;
MDE;MEDELLIN;;COLOMBIA;;;;;;;;;
MEX;JUAREZ INTL;;MEXICO CITY;;;;;;;;;
LHR;MIDDLESEX;;ENGLAND;;;;;;;;;
NBO;NAIROBI;;KENYA;;;;;;;;;
NAS;NASSAU;;BAHAMAS;;;;;;;;;
NCA;NORTH CAICOS;;TURK & CAIMAN;;;;;;;;;
PTY;OMAR TORRIJOS;;PANAMA;;;;;;;;;
SPV;PAPUA;;NEW GUINEA;;;;;;;;;
UIO;QUITO (MARISCAL SUCR);;ECUADOR;;;;;;;;;
RIT;ROME;;ITALY;;;;;;;;;
SNO;SAKON NAKHON #ARPT;;THAILAND;;;;;;;;;
SLP;SAN LUIS POTOSI #ARPT;;MEXICO;;;;;;;;;
SAN;SAN SALVADOR;;EL SALVADOR;;;;;;;;;
SRO;SANTANA RAMOS #ARPT;;COLOMBIA;;;;;;;;;
GRU;GUARULHOS INTL;;SAO PAULO;;;;;;;;;
SHA;SHANNON;;IRELAND;;;;;;;;;
HIL;SHILLAVO;;ETHIOPIA;;;;;;;;;
TOK;TOROKINA #ARPT;;PAPUA;;;;;;;;;
VER;VERACRUZ;;MEXICO;;;;;;;;;
LGW;WEST SUSSEX;;ENGLAND;;;;;;;;;
ZZZ;MEXICO Land (Banco de Mexico) ;;;;;;;;;;;
CHN;No PORT Code (CHN);;;;;;;;;;;
CNC;CANNON CORNERS;NY;;;;;;;;;;
MAA;Abu Dhabi;;;;;;;;;;;
AG0;MAGNOLIA;AR;;;;;;;;;;
BHM;BAR HARBOR;ME;;;;;;;;;;
BHX;BIRMINGHAM;AL;;;;;;;;;;
CAK;AKRON;OH;;KCAK;medium_airport;Akron Canton Regional Airport;1228.0;;US;Akron;-81.44219970703125; 40.916099548339844
FOK;SUFFOLK COUNTY;NY;;KFOK;small_airport;Francis S Gabreski Airport;67.0;;US;Westhampton Beach;-72.6317977905; 40.8437004089
LND;LANDER;WY;;KLND;medium_airport;Hunt Field;5586.0;;US;Lander;-108.730003357; 42.8152008057
MAR;MARFA;TX;;;;;;;;;;
MLI;MOLINE;IL;;KMLI;large_airport;Quad City International Airport;590.0;;US;Moline;-90.50749969482422; 41.44850158691406
RIV;RIVERSIDE;CA;;KRIV;medium_airport;March ARB Airport;1536.0;;US;Riverside;-117.259003; 33.880699
RME;ROME;NY;;KRME;medium_airport;Griffiss International Airport;504.0;;US;Rome;-75.40699768; 43.23379898
VNY;VAN NUYS;CA;;KVNY;medium_airport;Van Nuys Airport;802.0;;US;Van Nuys;-118.48999786377; 34.209800720215
YUM;YUMA;AZ;;KNYL;medium_airport;Yuma MCAS/Yuma International Airport;213.0;;US;Yuma;-114.6060028; 32.65660095
FRG;Collapsed (FOK) 06/15;;;;;;;;;;;
HRL;Collapsed (HLG) 06/15;;;;;;;;;;;
ISP;Collapsed (FOK) 06/15;;;;;;;;;;;
JSJ;Collapsed (SAJ) 06/15;;;;;;;;;;;
BUS;Collapsed (BUF) 06/15;;;;;;;;;;;
IAG;Collapsed (NIA) 06/15;;;;;;;;;;;
PHN;Collapsed (PHU) 06/15;;;;;;;;;;;
STN;Collapsed (STR) 06/15;;;;;;;;;;;
VMB;Collapsed (VNB) 06/15;;;;;;;;;;;
T01;Collapsed (SEA) 06/15;;;;;;;;;;;
PHF;No PORT Code (PHF);;;;;;;;;;;
DRV;No PORT Code (DRV);;;;;;;;;;;
FTB;No PORT Code (FTB);;;;;;;;;;;
GAC;No PORT Code (GAC);;;;;;;;;;;
GMT;No PORT Code (GMT);;;;;;;;;;;
JFA;No PORT Code (JFA);;;;;;;;;;;
JMZ;No PORT Code (JMZ);;;;;;;;;;;
NC8;No PORT Code (NC8);;;;;;;;;;;
NYL;No PORT Code (NYL);;;;;;;;;;;
OAI;No PORT Code (OAI);;;;;;;;;;;
PCW;No PORT Code (PCW);;;;;;;;;;;
WA5;No PORT Code (WAS);;;;;;;;;;;
WTR;No PORT Code (WTR);;;;;;;;;;;
X96;No PORT Code (X96);;;;;;;;;;;
XNA;No PORT Code (XNA);;;;;;;;;;;
YGF;No PORT Code (YGF);;;;;;;;;;;
5T6;No PORT Code (5T6);;;;;;;;;;;
060;No PORT Code (60);;;;;;;;;;;
SP0;No PORT Code (SP0);;;;;;;;;;;
W55;No PORT Code (W55);;;;;;;;;;;
X44;No PORT Code (X44);;;;;;;;;;;
AUH;No PORT Code (AUH);;;;;;;;;;;
RYY;No PORT Code (RYY);;;;;;;;;;;
SUS;No PORT Code (SUS);;;;;;;;;;;
74S;No PORT Code (74S);;;;;;;;;;;
ATW;No PORT Code (ATW);;;;;;;;;;;
CPX;No PORT Code (CPX);;;;;;;;;;;
MTH;No PORT Code (MTH);;;;;;;;;;;
PFN;No PORT Code (PFN);;;;;;;;;;;
SCH;No PORT Code (SCH);;;;;;;;;;;
ASI;No PORT Code (ASI);;;;;;;;;;;
BKF;No PORT Code (BKF);;;;;;;;;;;
DAY;No PORT Code (DAY);;;;;;;;;;;
Y62;No PORT Code (Y62);;;;;;;;;;;
AG;No PORT Code (AG);;;;;;;;;;;
BCM;No PORT Code (BCM);;;;;;;;;;;
DEC;No PORT Code (DEC);;;;;;;;;;;
PLB;No PORT Code (PLB);;;;;;;;;;;
CXO;No PORT Code (CXO);;;;;;;;;;;
JBQ;No PORT Code (JBQ);;;;;;;;;;;
JIG;No PORT Code (JIG);;;;;;;;;;;
OGS;No PORT Code (OGS);;;;;;;;;;;
TIW;No PORT Code (TIW);;;;;;;;;;;
OTS;No PORT Code (OTS);;;;;;;;;;;
AMT;No PORT Code (AMT);;;;;;;;;;;
EGE;No PORT Code (EGE);;;;;;;;;;;
GPI;No PORT Code (GPI);;;;;;;;;;;
NGL;No PORT Code (NGL);;;;;;;;;;;
OLM;No PORT Code (OLM);;;;;;;;;;;
.GA;No PORT Code (.GA);;;;;;;;;;;
CLX;No PORT Code (CLX);;;;;;;;;;;
CP ;No PORT Code (CP);;;;;;;;;;;
FSC;No PORT Code (FSC);;;;;;;;;;;
NK;No PORT Code (NK);;;;;;;;;;;
ADU;No PORT Code (ADU);;;;;;;;;;;
AKT;No PORT Code (AKT);;;;;;;;;;;
LIT;No PORT Code (LIT);;;;;;;;;;;
A2A;No PORT Code (A2A);;;;;;;;;;;
OSN;No PORT Code (OSN);;;;;;;;;;;
